NORAD_CAT_ID,OBJECT_NAME,OBJECT_TYPE,EPOCH,MEAN_MOTION,ECCENTRICITY,INCLINATION,RA_OF_ASC_NODE,ARG_OF_PERICENTER,MEAN_ANOMALY,BSTAR,MEAN_MOTION_DOT,MEAN_MOTION_DDOT,TLE_LINE0,TLE_LINE1,TLE_LINE2,SEMIMAJOR_AXIS,PERIOD,APOGEE,PERIGEE,DECAYED
52648.0,STARLINK-3854,PAYLOAD,2024-02-01 11:04:29,15.08843574,0.0001828,53.2199,103.3364,112.4904,247.6282,3.5586e-05,2.78e-06,0.0,0 STARLINK-3854,1 52648U 22052BC  24032.46145564  .00000278  00000-0  35586-4 0  9990,2 52648  53.2199 103.3364 0001828 112.4904 247.6282 15.08843574 95680,6917.869,95.437,540.999,538.47,0.0
52648.0,STARLINK-3854,PAYLOAD,2024-02-02 14:06:02,15.08844459,0.0001696,53.2184,98.283,102.0479,258.0703,4.4484e-05,4.2e-06,0.0,0 STARLINK-3854,1 52648U 22052BC  24033.58753349  .00000420  00000-0  44484-4 0  9996,2 52648  53.2184  98.2830 0001696 102.0479 258.0703 15.08844459 95473,6917.867,95.437,540.905,538.558,0.0
52648.0,STARLINK-3854,PAYLOAD,2024-02-03 10:46:04,15.08837744,0.0001622,53.2177,94.4162,94.4596,265.6582,5.0242e-06,-2.08e-06,0.0,0 STARLINK-3854,1 52648U 22052BC  24034.44865982 -.00000208  00000-0  50242-5 0  9994,2 52648  53.2177  94.4162 0001622  94.4596 265.6582 15.08837744 95988,6917.887,95.438,540.874,538.63,0.0
52648.0,STARLINK-3854,PAYLOAD,2024-02-03 13:56:50,15.08837069,0.0001647,53.2178,93.8222,96.1528,263.9652,-8.3403e-07,-3.01e-06,0.0,0 STARLINK-3854,1 52648U 22052BC  24034.58114052 -.00000301  00000-0 -83403-6 0  9995,2 52648  53.2178  93.8222 0001647  96.1528 263.9652 15.08837069 95620,6917.889,95.438,540.894,538.615,0.0
52648.0,STARLINK-3854,PAYLOAD,2024-02-04 10:36:50,15.08843597,0.0001646,53.2178,89.9566,94.0085,266.1095,8.2017e-05,1.018e-05,0.0,0 STARLINK-3854,1 52648U 22052BC  24035.44225494  .00001018  00000-0  82017-4 0  9996,2 52648  53.2178  89.9566 0001646  94.0085 266.1095 15.08843597 96137,6917.869,95.437,540.873,538.596,0.0
52648.0,STARLINK-3854,PAYLOAD,2024-02-05 10:27:38,15.08838324,0.0001679,53.2176,85.5034,108.5977,251.5198,3.6848e-05,2.98e-06,0.0,0 STARLINK-3854,1 52648U 22052BC  24036.43586100  .00000298  00000-0  36848-4 0  9990,2 52648  53.2176  85.5034 0001679 108.5977 251.5198 15.08838324 96284,6917.886,95.438,540.912,538.589,0.0
52648.0,STARLINK-3854,PAYLOAD,2024-02-05 16:49:10,15.08843137,0.0001489,53.2161,84.3103,94.7761,265.3401,8.1246e-05,1.005e-05,0.0,0 STARLINK-3854,1 52648U 22052BC  24036.70081647  .00001005  00000-0  81246-4 0  9995,2 52648  53.2161  84.3103 0001489  94.7761 265.3401 15.08843137 95948,6917.871,95.437,540.766,538.706,0.0
52648.0,STARLINK-3854,PAYLOAD,2024-02-06 11:53:48,15.08840869,0.0001612,53.2172,80.7415,79.5796,280.5378,4.2143e-05,3.83e-06,0.0,0 STARLINK-3854,1 52648U 22052BC  24037.49570197  .00000383  00000-0  42143-4 0  9996,2 52648  53.2172  80.7415 0001612  79.5796 280.5378 15.08840869 96440,6917.878,95.437,540.858,538.628,0.0
52648.0,STARLINK-3854,PAYLOAD,2024-02-07 11:44:35,15.08848829,0.0001513,53.2167,76.2809,94.0659,266.0507,6.6295e-05,7.67e-06,0.0,0 STARLINK-3854,1 52648U 22052BC  24038.48929569  .00000767  00000-0  66295-4 0  9997,2 52648  53.2167  76.2809 0001513  94.0659 266.0507 15.08848829 96213,6917.853,95.437,540.765,538.672,0.0
52648.0,STARLINK-3854,PAYLOAD,2024-02-07 19:41:31,15.08835564,0.0001822,53.2184,74.7933,83.6256,276.4943,-2.1594e-05,-6.32e-06,0.0,0 STARLINK-3854,1 52648U 22052BC  24038.82050729 -.00000632  00000-0 -21594-4 0  9994,2 52648  53.2184  74.7933 0001822  83.6256 276.4943 15.08835564 96641,6917.894,95.438,541.019,538.499,0.0
52648.0,STARLINK-3854,PAYLOAD,2024-02-08 11:35:22,15.08841939,0.0001615,53.2176,71.8199,92.3475,267.7702,1.8594e-05,8e-08,0.0,0 STARLINK-3854,1 52648U 22052BC  24039.48290418  .00000008  00000-0  18594-4 0  9999,2 52648  53.2176  71.8199 0001615  92.3475 267.7702 15.08841939 96362,6917.874,95.437,540.857,538.622,0.0
52648.0,STARLINK-3854,PAYLOAD,2024-02-09 08:15:23,15.08845084,0.0001558,53.2168,67.9554,81.8495,278.2674,7.9624e-05,9.8e-06,0.0,0 STARLINK-3854,1 52648U 22052BC  24040.34402094  .00000980  00000-0  79624-4 0  9991,2 52648  53.2168  67.9554 0001558  81.8495 278.2674 15.08845084 96499,6917.865,95.437,540.808,538.652,0.0
52648.0,STARLINK-3854,PAYLOAD,2024-02-10 01:44:38,15.08832156,0.0001713,53.2176,64.6864,84.169,275.9498,9.1056e-05,1.161e-05,0.0,0 STARLINK-3854,1 52648U 22052BC  24041.07266968  .00001161  00000-0  91056-4 0  9995,2 52648  53.2176  64.6864 0001713  84.1690 275.9498 15.08832156 96980,6917.904,95.438,540.954,538.584,0.0
52648.0,STARLINK-3854,PAYLOAD,2024-02-10 08:06:11,15.08837786,0.0001758,53.2178,63.4946,100.9838,259.1351,2.593e-05,1.25e-06,0.0,0 STARLINK-3854,1 52648U 22052BC  24041.33762937  .00000125  00000-0  25930-4 0  9998,2 52648  53.2178  63.4946 0001758 100.9838 259.1351 15.08837786 96649,6917.887,95.438,540.968,538.536,0.0
52648.0,STARLINK-3854,PAYLOAD,2024-02-11 07:56:58,15.08843796,0.0001748,53.2179,59.0327,106.3303,253.7882,1.3693e-05,-7e-07,0.0,0 STARLINK-3854,1 52648U 22052BC  24042.33122730 -.00000070  00000-0  13693-4 0  9993,2 52648  53.2179  59.0327 0001748 106.3303 253.7882 15.08843796 97176,6917.869,95.437,540.943,538.525,0.0
52648.0,STARLINK-3854,PAYLOAD,2024-02-12 06:12:21,15.08842637,0.0001707,53.2177,54.8718,102.3474,257.771,0.00013659,1.887e-05,0.0,0 STARLINK-3854,1 52648U 22052BC  24043.25858605  .00001887  00000-0  13659-3 0  9999,2 52648  53.2177  54.8718 0001707 102.3474 257.7710 15.08842637 96931,6917.872,95.437,540.918,538.556,0.0
52648.0,STARLINK-3854,PAYLOAD,2024-02-13 01:17:00,15.08834609,0.0001688,53.217,51.2991,105.9436,254.1742,1.7729e-05,-6e-08,0.0,0 STARLINK-3854,1 52648U 22052BC  24044.05347456 -.00000006  00000-0  17729-4 0  9991,2 52648  53.2170  51.2991 0001688 105.9436 254.1742 15.08834609 97435,6917.897,95.438,540.93,538.594,0.0
52648.0,STARLINK-3854,PAYLOAD,2024-02-13 07:38:33,15.08834864,0.0001413,53.2173,50.1095,84.9159,275.1994,-2.7792e-05,-7.3e-06,0.0,0 STARLINK-3854,1 52648U 22052BC  24044.31843804 -.00000730  00000-0 -27792-4 0  9994,2 52648  53.2173  50.1095 0001413  84.9159 275.1994 15.08834864 97092,6917.896,95.438,540.739,538.784,0.0
52648.0,STARLINK-3854,PAYLOAD,2024-02-13 20:21:37,15.08848386,0.0001227,53.2163,47.7301,71.4531,288.6595,-7.5812e-05,-1.494e-05,0.0,0 STARLINK-3854,1 52648U 22052BC  24044.84835493 -.00001494  00000-0 -75812-4 0  9991,2 52648  53.2163  47.7301 0001227  71.4531 288.6595 15.08848386 97170,6917.855,95.437,540.569,538.871,0.0
52648.0,STARLINK-3854,PAYLOAD,2024-02-14 04:18:32,15.08852838,0.0001521,53.2187,46.244,95.3348,264.7818,6.5759e-05,7.59e-06,0.0,0 STARLINK-3854,1 52648U 22052BC  24045.17954516  .00000759  00000-0  65759-4 0  9996,2 52648  53.2187  46.2440 0001521  95.3348 264.7818 15.08852838 97600,6917.841,95.437,540.758,538.654,0.0
52648.0,STARLINK-3854,PAYLOAD,2024-02-14 09:04:41,15.08856429,0.0001573,53.2178,45.3524,106.6335,253.483,0.0001849,2.657e-05,0.0,0 STARLINK-3854,1 52648U 22052BC  24045.37825888  .00002657  00000-0  18490-3 0  9995,2 52648  53.2178  45.3524 0001573 106.6335 253.4830 15.08856429 97252,6917.83,95.437,540.783,538.607,0.0
52648.0,STARLINK-3854,PAYLOAD,2024-02-15 04:09:20,15.08833715,0.000146,53.2172,41.784,87.3413,272.7746,9.0133e-05,1.147e-05,0.0,0 STARLINK-3854,1 52648U 22052BC  24046.17315779  .00001147  00000-0  90133-4 0  9995,2 52648  53.2172  41.7840 0001460  87.3413 272.7746 15.08833715 97752,6917.9,95.438,540.775,538.755,0.0
52648.0,STARLINK-3854,PAYLOAD,2024-02-15 08:55:30,15.088376,0.0001452,53.2178,40.8921,89.7591,270.3567,0.00014977,2.096e-05,0.0,0 STARLINK-3854,1 52648U 22052BC  24046.37187722  .00002096  00000-0  14977-3 0  9997,2 52648  53.2178  40.8921 0001452  89.7591 270.3567 15.08837600 97406,6917.888,95.438,540.757,538.748,0.0
52648.0,STARLINK-3854,PAYLOAD,2024-02-15 16:52:25,15.08838097,0.0001464,53.2181,39.4062,89.703,270.413,0.00011782,1.588e-05,0.0,0 STARLINK-3854,1 52648U 22052BC  24046.70307827  .00001588  00000-0  11782-3 0  9990,2 52648  53.2181  39.4062 0001464  89.7030 270.4130 15.08838097 97454,6917.886,95.438,540.764,538.738,0.0
52648.0,STARLINK-3854,PAYLOAD,2024-02-16 08:46:16,15.08854056,0.0001427,53.217,36.4324,93.7287,266.3868,0.0003821,5.801e-05,0.0,0 STARLINK-3854,1 52648U 22052BC  24047.36547081  .00005801  00000-0  38210-3 0  9998,2 52648  53.2170  36.4324 0001427  93.7287 266.3868 15.08854056 97936,6917.837,95.437,540.69,538.715,0.0
52648.0,STARLINK-3854,PAYLOAD,2024-02-17 03:50:55,15.08841844,0.0001593,53.2181,32.865,89.2244,270.8931,0.00023588,3.468e-05,0.0,0 STARLINK-3854,1 52648U 22052BC  24048.16036022  .00003468  00000-0  23588-3 0  9994,2 52648  53.2181  32.8650 0001593  89.2244 270.8931 15.08841844 98053,6917.875,95.437,540.842,538.638,0.0
52648.0,STARLINK-3854,PAYLOAD,2024-02-17 08:37:04,15.08847722,0.000163,53.218,31.9726,85.323,274.7949,0.00041853,6.381e-05,0.0,0 STARLINK-3854,1 52648U 22052BC  24048.35907888  .00006381  00000-0  41853-3 0  9994,2 52648  53.2180  31.9726 0001630  85.3230 274.7949 15.08847722 97704,6917.857,95.437,540.849,538.594,0.0
52648.0,STARLINK-3854,PAYLOAD,2024-02-18 08:27:51,15.08857764,0.0001555,53.2176,27.511,91.0152,269.1018,0.00079135,0.00012335,0.0,0 STARLINK-3854,1 52648U 22052BC  24049.35267574  .00012335  00000-0  79135-3 0  9996,2 52648  53.2176  27.5110 0001555  91.0152 269.1018 15.08857764 98231,6917.826,95.436,540.767,538.615,0.0
52648.0,STARLINK-3854,PAYLOAD,2024-02-19 03:32:28,15.08845554,0.000148,53.2176,23.94,90.9802,269.136,0.00011096,1.479e-05,0.0,0 STARLINK-3854,1 52648U 22052BC  24050.14755559  .00001479  00000-0  11096-3 0  9999,2 52648  53.2176  23.9400 0001480  90.9802 269.1360 15.08845554 98357,6917.863,95.437,540.752,538.705,0.0
52648.0,STARLINK-3854,PAYLOAD,2024-02-19 14:40:10,15.08841216,0.0001515,53.2185,21.8578,85.2058,274.9107,4.325e-05,4e-06,0.0,0 STARLINK-3854,1 52648U 22052BC  24050.61123627  .00000400  00000-0  43250-4 0  9997,2 52648  53.2185  21.8578 0001515  85.2058 274.9107 15.08841216 98049,6917.877,95.437,540.79,538.694,0.0
